{
  "53673": {
    "noradId": "53673",
    "tle": [
      "1 53673C 22105AB  26019.16437500  .00004041  00000+0  28067-3 0   195",
      "2 53673  97.6030 262.4172 0002247  90.6760  34.0820 15.05639450    14"
    ]
  },
  "53674": {
    "noradId": "53674",
    "tle": [
      "1 53674C 22105AC  26019.18243056 -.00109530  00000+0 -85384-2 0   194",
      "2 53674  97.6029 261.7504 0002421  76.5158 108.5982 15.01394377    10"
    ]
  },
  "53675": {
    "noradId": "53675",
    "tle": [
      "1 53675C 22105AD  26019.18104167 -.00004741  00000+0 -32930-3 0   192",
      "2 53675  97.6021 262.4887 0001950  93.6896  61.3533 15.05645401    19"
    ]
  },
  "53676": {
    "noradId": "53676",
    "tle": [
      "1 53676C 22105AE  26019.18034722 -.00005194  00000+0 -40511-3 0   199",
      "2 53676  97.6025 261.7495 0003589  62.7338 131.1251 15.01267871    19"
    ]
  },
  "53677": {
    "noradId": "53677",
    "tle": [
      "1 53677C 22105AF  26019.18173611 -.00011235  00000+0 -78010-3 0   199",
      "2 53677  97.6017 262.4386 0002414  84.8507 298.9451 15.05662767    18"
    ]
  },
  "53679": {
    "noradId": "53679",
    "tle": [
      "1 53679C 22105AH  26019.18104167 -.00008756  00000+0 -60800-3 0   193",
      "2 53679  97.6029 262.5065 0002338  86.0248 113.9782 15.05658191    18"
    ]
  },
  "53680": {
    "noradId": "53680",
    "tle": [
      "1 53680C 22105AJ  26019.17965278 -.00006900  00000+0 -47904-3 0   191",
      "2 53680  97.6017 262.4174 0002294  84.7558 302.7524 15.05660289    10"
    ]
  },
  "53681": {
    "noradId": "53681",
    "tle": [
      "1 53681C 22105AK  26019.18590278 -.00000797  00000+0 -62135-4 0   199",
      "2 53681  97.6019 261.7686 0004673  39.9981 223.8655 15.01265852    19"
    ]
  },
  "53682": {
    "noradId": "53682",
    "tle": [
      "1 53682C 22105AL  26019.18104167 -.00007189  00000+0 -49914-3 0   199",
      "2 53682  97.6033 262.3684 0002692  87.1489 202.9141 15.05657328    13"
    ]
  },
  "53683": {
    "noradId": "53683",
    "tle": [
      "1 53683C 22105AM  26019.18034722  .00001796  00000+0  14006-3 0   199",
      "2 53683  97.6023 261.7450 0002562  59.4989 143.0349 15.01258979    10"
    ]
  },
  "53684": {
    "noradId": "53684",
    "tle": [
      "1 53684C 22105AN  26019.17965278 -.00001015  00000+0 -79181-4 0   190",
      "2 53684  97.6046 261.8021 0001122 116.5448 353.5960 15.01264131    11"
    ]
  },
  "53685": {
    "noradId": "53685",
    "tle": [
      "1 53685C 22105AP  26019.18034722 -.00005413  00000+0 -42220-3 0   192",
      "2 53685  97.6015 261.7528 0003643  50.9875 191.5547 15.01266251    10"
    ]
  },
  "53686": {
    "noradId": "53686",
    "tle": [
      "1 53686C 22105AQ  26019.17965278 -.00000939  00000+0 -73274-4 0   193",
      "2 53686  97.6024 261.7933 0000794  92.2180 297.9230 15.01263401    17"
    ]
  },
  "53687": {
    "noradId": "53687",
    "tle": [
      "1 53687C 22105AR  26019.18034722 -.00006071  00000+0 -42153-3 0   190",
      "2 53687  97.6031 262.3732 0003051  78.9425 222.3581 15.05655976    19"
    ]
  },
  "53688": {
    "noradId": "53688",
    "tle": [
      "1 53688C 22105AS  26019.18381944  .00001836  00000+0  14316-3 0   194",
      "2 53688  97.6002 261.7479 0004469  32.8684 259.7387 15.01261479    14"
    ]
  },
  "53690": {
    "noradId": "53690",
    "tle": [
      "1 53690C 22105AU  26019.18590278 -.00003703  00000+0 -28879-3 0   195",
      "2 53690  97.6034 261.6967 0003000  81.5662 102.2744 15.01265367    19"
    ]
  },
  "53691": {
    "noradId": "53691",
    "tle": [
      "1 53691C 22105AV  26019.18173611  .00019359  00000+0  13449-2 0   192",
      "2 53691  97.6016 262.4143 0002067  88.0920 355.6743 15.05611799    17"
    ]
  },
  "53692": {
    "noradId": "53692",
    "tle": [
      "1 53692C 22105AW  26019.19284722  .00039819  00000+0  19707-2 0   196",
      "2 53692  97.6261 265.6865 0003524  60.6944 167.7106 15.17832986    18"
    ]
  },
  "53693": {
    "noradId": "53693",
    "tle": [
      "1 53693C 22105AX  26019.18173611  .00005924  00000+0  41129-3 0   194",
      "2 53693  97.6028 262.5075 0002754  90.1972 233.5729 15.05646307    12"
    ]
  },
  "53700": {
    "noradId": "53700",
    "tle": [
      "1 53700C 22107A   26019.18243056 -.00004577  00000+0 -28697-3 0   196",
      "2 53700  53.2166 105.9961 0001255  83.6282 332.4516 15.08846789    14"
    ]
  },
  "53701": {
    "noradId": "53701",
    "tle": [
      "1 53701C 22107B   26019.18034722 -.00011202  00000+0 -70234-3 0   192",
      "2 53701  53.2163 105.9666 0001286  89.9374 334.8506 15.08853990    16"
    ]
  },
  "53702": {
    "noradId": "53702",
    "tle": [
      "1 53702C 22107C   26019.18451389  .00013443  00000+0  84290-3 0   199",
      "2 53702  53.2164  91.2602 0001158  93.5867 216.0468 15.08829545    18"
    ]
  },
  "53703": {
    "noradId": "53703",
    "tle": [
      "1 53703C 22107D   26019.18173611 -.00001276  00000+0 -80013-4 0   192",
      "2 53703  53.2169 106.1179 0001180  88.7876 263.4456 15.08845637    13"
    ]
  },
  "53704": {
    "noradId": "53704",
    "tle": [
      "1 53704C 22107E   26019.17548611 -.00017181  00000+0 -10768-2 0   198",
      "2 53704  53.2161 106.6569 0001192  85.4365 332.4762 15.08875109    18"
    ]
  },
  "53705": {
    "noradId": "53705",
    "tle": [
      "1 53705C 22107F   26019.18243056 -.00006622  00000+0 -41512-3 0   195",
      "2 53705  53.2159 106.5863 0001320  91.4983  24.1662 15.08858122    18"
    ]
  },
  "53706": {
    "noradId": "53706",
    "tle": [
      "1 53706C 22107G   26019.18034722  .00000264  00000+0  16568-4 0   192",
      "2 53706  53.2161 106.4372 0001187  87.1947  97.2819 15.08839015    14"
    ]
  },
  "53707": {
    "noradId": "53707",
    "tle": [
      "1 53707C 22107H   26019.18520833 -.00002654  00000+0 -16639-3 0   191",
      "2 53707  53.2165  91.3714 0001198  86.8798 166.5264 15.08846962    16"
    ]
  },
  "53708": {
    "noradId": "53708",
    "tle": [
      "1 53708C 22107J   26019.18104167 -.00011213  00000+0 -70307-3 0   193",
      "2 53708  53.2165  91.2404 0001017  87.3702 223.5051 15.08853074    13"
    ]
  },
  "53709": {
    "noradId": "53709",
    "tle": [
      "1 53709C 22107K   26019.18381944 -.00009206  00000+0 -57720-3 0   197",
      "2 53709  53.2159 111.0581 0001015  83.4786 312.6039 15.08852566    12"
    ]
  },
  "53711": {
    "noradId": "53711",
    "tle": [
      "1 53711C 22107M   26019.18173611  .00003141  00000+0  19696-3 0   190",
      "2 53711  53.2164 111.1774 0001262  83.1494 241.5373 15.08839549    10"
    ]
  },
  "53712": {
    "noradId": "53712",
    "tle": [
      "1 53712C 22107N   26019.18104167  .00005788  00000+0  36289-3 0   197",
      "2 53712  53.2157 110.9216 0001217  92.0704   9.0080 15.08835377    11"
    ]
  },
  "53715": {
    "noradId": "53715",
    "tle": [
      "1 53715C 22107R   26019.18243056  .00006629  00000+0  41578-3 0   193",
      "2 53715  53.2155 116.0861 0001411  87.4408 273.6419 15.08820808    18"
    ]
  },
  "53716": {
    "noradId": "53716",
    "tle": [
      "1 53716C 22107S   26019.18034722 -.00000465  00000+0 -29146-4 0   194",
      "2 53716  53.2158 116.0574 0001055  87.7473 281.9828 15.08843301    11"
    ]
  },
  "53718": {
    "noradId": "53718",
    "tle": [
      "1 53718C 22107U   26019.17270833 -.00003483  00000+0 -21836-3 0   190",
      "2 53718  53.2163 116.6761 0001169  90.4937 292.1217 15.08850271    15"
    ]
  },
  "53719": {
    "noradId": "53719",
    "tle": [
      "1 53719C 22107V   26019.18243056 -.00014589  00000+0 -91456-3 0   193",
      "2 53719  53.2161  85.9915 0001225  75.7587 350.3133 15.08864407    13"
    ]
  },
  "53720": {
    "noradId": "53720",
    "tle": [
      "1 53720C 22107W   26019.18034722  .00003017  00000+0  18916-3 0   195",
      "2 53720  53.2158 116.1373 0001071  79.2749 250.3955 15.08839289    15"
    ]
  },
  "53721": {
    "noradId": "53721",
    "tle": [
      "1 53721C 22107X   26019.18173611 -.00004208  00000+0 -26386-3 0   192",
      "2 53721  53.2159 116.2087 0001251  82.8486 214.3119 15.08847328    13"
    ]
  },
  "53722": {
    "noradId": "53722",
    "tle": [
      "1 53722C 22107Y   26019.18590278 -.00002171  00000+0 -13614-3 0   192",
      "2 53722  53.2163 116.2651 0001261  86.6970 193.0680 15.08843624    18"
    ]
  },
  "53723": {
    "noradId": "53723",
    "tle": [
      "1 53723C 22107Z   26019.18520833 -.00000861  00000+0 -53984-4 0   192",
      "2 53723  53.2160 116.0004 0001224  80.9841 335.1828 15.08841285    13"
    ]
  },
  "53724": {
    "noradId": "53724",
    "tle": [
      "1 53724C 22107AA  26019.17965278 -.00000781  00000+0 -48982-4 0   191",
      "2 53724  53.2160 116.1779 0001163  68.3431 237.5517 15.08839571    16"
    ]
  },
  "53726": {
    "noradId": "53726",
    "tle": [
      "1 53726C 22107AC  26019.18381944 -.00007268  00000+0 -45547-3 0   196",
      "2 53726  53.2161 116.2395 0001059  82.6814 205.7349 15.08867091    10"
    ]
  },
  "53727": {
    "noradId": "53727",
    "tle": [
      "1 53727C 22107AD  26019.18381944 -.00005770  00000+0 -36178-3 0   193",
      "2 53727  53.2169 116.3561 0001169  91.3229 137.0580 15.08849195    13"
    ]
  },
  "53728": {
    "noradId": "53728",
    "tle": [
      "1 53728C 22107AE  26019.18034722  .00003351  00000+0  21013-3 0   196",
      "2 53728  53.2165 116.3328 0001220  84.3621 145.1811 15.08839872    15"
    ]
  },
  "53729": {
    "noradId": "53729",
    "tle": [
      "1 53729C 22107AF  26019.18520833 -.00008865  00000+0 -55582-3 0   195",
      "2 53729  53.2165 116.4682 0001269  90.3109  85.5538 15.08851103    15"
    ]
  },
  "53730": {
    "noradId": "53730",
    "tle": [
      "1 53730C 22107AG  26019.18104167  .00009262  00000+0  58109-3 0   193",
      "2 53730  53.2169 116.4077 0001303  84.9473 108.4322 15.08809301    10"
    ]
  }
}